{
  "type": "FeatureCollection",
  "features": [
    {
      "type": "Feature",
      "properties": {
        "norad_id": 41773,
        "name": "SKYSAT-C2",
        "group": "resource",
        "lat": -72.91139808608088,
        "lon": 179.0397351793295,
        "alt_km": 461.2204051037397,
        "timestamp": "2025-12-24T16:52:41.157754+00:00",
        "meta_object_name": "SKYSAT-C2",
        "meta_object_id": "2016-058D",
        "meta_epoch": "2025-12-24T00:09:18.652032",
        "meta_mean_motion": 15.37515699,
        "meta_eccentricity": 0.00028906,
        "meta_inclination": 97.0347,
        "meta_ra_of_asc_node": 22.0558,
        "meta_arg_of_pericenter": 0.8016,
        "meta_mean_anomaly": 359.3234,
        "meta_ephemeris_type": 0,
        "meta_classification_type": "U",
        "meta_norad_cat_id": 41773,
        "meta_element_set_no": 999,
        "meta_rev_at_epoch": 51809,
        "meta_bstar": 0.00032672099,
        "meta_mean_motion_dot": 0.00011953,
        "meta_mean_motion_ddot": 0,
        "tle_line1": "1 41773U 16058D   25358.00646588  .00011953  00000+0  32672-3 0  9993",
        "tle_line2": "2 41773  97.0347  22.0558 0002890   0.8016 359.3234 15.37515699518093"
      },
      "geometry": {
        "type": "Point",
        "coordinates": [
          179.0397351793295,
          -72.91139808608088
        ]
      }
    },
    {
      "type": "Feature",
      "properties": {
        "norad_id": 41774,
        "name": "SKYSAT-C3",
        "group": "resource",
        "lat": 32.21424070325417,
        "lon": 27.49987037318073,
        "alt_km": 429.6866407452535,
        "timestamp": "2025-12-24T16:52:41.157764+00:00",
        "meta_object_name": "SKYSAT-C3",
        "meta_object_id": "2016-058E",
        "meta_epoch": "2025-12-24T01:11:30.109920",
        "meta_mean_motion": 15.44788034,
        "meta_eccentricity": 0.00021094,
        "meta_inclination": 96.9281,
        "meta_ra_of_asc_node": 31.2705,
        "meta_arg_of_pericenter": 105.7361,
        "meta_mean_anomaly": 254.4121,
        "meta_ephemeris_type": 0,
        "meta_classification_type": "U",
        "meta_norad_cat_id": 41774,
        "meta_element_set_no": 999,
        "meta_rev_at_epoch": 51900,
        "meta_bstar": 0.00040539837,
        "meta_mean_motion_dot": 0.00018915,
        "meta_mean_motion_ddot": 0,
        "tle_line1": "1 41774U 16058E   25358.04965405  .00018915  00000+0  40540-3 0  9998",
        "tle_line2": "2 41774  96.9281  31.2705 0002109 105.7361 254.4121 15.44788034519001"
      },
      "geometry": {
        "type": "Point",
        "coordinates": [
          27.49987037318073,
          32.21424070325417
        ]
      }
    },
    {
      "type": "Feature",
      "properties": {
        "norad_id": 41785,
        "name": "ALSAT 1B",
        "group": "resource",
        "lat": 12.740966608051528,
        "lon": 8.204412168402795,
        "alt_km": 651.474883838825,
        "timestamp": "2025-12-24T16:52:41.157775+00:00",
        "meta_object_name": "ALSAT 1B",
        "meta_object_id": "2016-059C",
        "meta_epoch": "2025-12-24T07:01:55.003872",
        "meta_mean_motion": 14.72087896,
        "meta_eccentricity": 0.00107461,
        "meta_inclination": 97.7805,
        "meta_ra_of_asc_node": 9.5835,
        "meta_arg_of_pericenter": 71.0803,
        "meta_mean_anomaly": 289.1569,
        "meta_ephemeris_type": 0,
        "meta_classification_type": "U",
        "meta_norad_cat_id": 41785,
        "meta_element_set_no": 999,
        "meta_rev_at_epoch": 49484,
        "meta_bstar": 0.00011044832,
        "meta_mean_motion_dot": 6.48e-06,
        "meta_mean_motion_ddot": 0,
        "tle_line1": "1 41785U 16059C   25358.29299773  .00000648  00000+0  11045-3 0  9998",
        "tle_line2": "2 41785  97.7805   9.5835 0010746  71.0803 289.1569 14.72087896494841"
      },
      "geometry": {
        "type": "Point",
        "coordinates": [
          8.204412168402795,
          12.740966608051528
        ]
      }
    },
    {
      "type": "Feature",
      "properties": {
        "norad_id": 41787,
        "name": "PATHFINDER 1",
        "group": "resource",
        "lat": -66.07723176015344,
        "lon": 162.88976698208444,
        "alt_km": 696.0944302715452,
        "timestamp": "2025-12-24T16:52:41.157786+00:00",
        "meta_object_name": "PATHFINDER 1",
        "meta_object_id": "2016-059E",
        "meta_epoch": "2025-12-24T05:56:07.636704",
        "meta_mean_motion": 14.67340512,
        "meta_eccentricity": 0.0029651,
        "meta_inclination": 97.8138,
        "meta_ra_of_asc_node": 0.4869,
        "meta_arg_of_pericenter": 46.0975,
        "meta_mean_anomaly": 314.2671,
        "meta_ephemeris_type": 0,
        "meta_classification_type": "U",
        "meta_norad_cat_id": 41787,
        "meta_element_set_no": 999,
        "meta_rev_at_epoch": 49405,
        "meta_bstar": 0.00014660851,
        "meta_mean_motion_dot": 7.87e-06,
        "meta_mean_motion_ddot": 0,
        "tle_line1": "1 41787U 16059E   25358.24731061  .00000787  00000+0  14661-3 0  9997",
        "tle_line2": "2 41787  97.8138   0.4869 0029651  46.0975 314.2671 14.67340512494055"
      },
      "geometry": {
        "type": "Point",
        "coordinates": [
          162.88976698208444,
          -66.07723176015344
        ]
      }
    },
    {
      "type": "Feature",
      "properties": {
        "norad_id": 41790,
        "name": "SCATSAT 1",
        "group": "resource",
        "lat": 19.349450013533882,
        "lon": 52.63939938814753,
        "alt_km": 619.4136005846603,
        "timestamp": "2025-12-24T16:52:41.157796+00:00",
        "meta_object_name": "SCATSAT 1",
        "meta_object_id": "2016-059H",
        "meta_epoch": "2025-12-24T02:10:35.582304",
        "meta_mean_motion": 14.78971752,
        "meta_eccentricity": 0.00564779,
        "meta_inclination": 98.1447,
        "meta_ra_of_asc_node": 54.902,
        "meta_arg_of_pericenter": 92.2518,
        "meta_mean_anomaly": 268.5161,
        "meta_ephemeris_type": 0,
        "meta_classification_type": "U",
        "meta_norad_cat_id": 41790,
        "meta_element_set_no": 999,
        "meta_rev_at_epoch": 7570,
        "meta_bstar": 0.00019623973,
        "meta_mean_motion_dot": 1.431e-05,
        "meta_mean_motion_ddot": 0,
        "tle_line1": "1 41790U 16059H   25358.09068961  .00001431  00000+0  19624-3 0  9997",
        "tle_line2": "2 41790  98.1447  54.9020 0056477  92.2518 268.5161 14.78971752 75701"
      },
      "geometry": {
        "type": "Point",
        "coordinates": [
          52.63939938814753,
          19.349450013533882
        ]
      }
    },
    {
      "type": "Feature",
      "properties": {
        "norad_id": 41875,
        "name": "GOKTURK 1A",
        "group": "resource",
        "lat": 49.789762455520226,
        "lon": 80.6599089583507,
        "alt_km": 679.0415758780855,
        "timestamp": "2025-12-24T16:52:41.157806+00:00",
        "meta_object_name": "GOKTURK 1A",
        "meta_object_id": "2016-073A",
        "meta_epoch": "2025-12-24T06:26:18.312000",
        "meta_mean_motion": 14.62791948,
        "meta_eccentricity": 0.00012862,
        "meta_inclination": 98.1429,
        "meta_ra_of_asc_node": 250.4797,
        "meta_arg_of_pericenter": 81.4922,
        "meta_mean_anomaly": 278.6426,
        "meta_ephemeris_type": 0,
        "meta_classification_type": "U",
        "meta_norad_cat_id": 41875,
        "meta_element_set_no": 999,
        "meta_rev_at_epoch": 48325,
        "meta_bstar": 0.0001062738,
        "meta_mean_motion_dot": 4.95e-06,
        "meta_mean_motion_ddot": 0,
        "tle_line1": "1 41875U 16073A   25358.26826750  .00000495  00000+0  10627-3 0  9997",
        "tle_line2": "2 41875  98.1429 250.4797 0001286  81.4922 278.6426 14.62791948483255"
      },
      "geometry": {
        "type": "Point",
        "coordinates": [
          80.6599089583507,
          49.789762455520226
        ]
      }
    },
    {
      "type": "Feature",
      "properties": {
        "norad_id": 41877,
        "name": "RESOURCESAT-2A",
        "group": "resource",
        "lat": -27.376364713942248,
        "lon": -116.09811548888996,
        "alt_km": 824.4857763036925,
        "timestamp": "2025-12-24T16:52:41.157817+00:00",
        "meta_object_name": "RESOURCESAT-2A",
        "meta_object_id": "2016-074A",
        "meta_epoch": "2025-12-24T07:27:30.682656",
        "meta_mean_motion": 14.21605573,
        "meta_eccentricity": 0.00016067,
        "meta_inclination": 98.7742,
        "meta_ra_of_asc_node": 68.099,
        "meta_arg_of_pericenter": 203.1315,
        "meta_mean_anomaly": 156.979,
        "meta_ephemeris_type": 0,
        "meta_classification_type": "U",
        "meta_norad_cat_id": 41877,
        "meta_element_set_no": 999,
        "meta_rev_at_epoch": 46945,
        "meta_bstar": 0.00020622289,
        "meta_mean_motion_dot": 4.08e-06,
        "meta_mean_motion_ddot": 0,
        "tle_line1": "1 41877U 16074A   25358.31077179  .00000408  00000+0  20622-3 0  9999",
        "tle_line2": "2 41877  98.7742  68.0990 0001606 203.1315 156.9790 14.21605573469455"
      },
      "geometry": {
        "type": "Point",
        "coordinates": [
          -116.09811548888996,
          -27.376364713942248
        ]
      }
    }
  ]
}